{
  "norad_id": 48216,
  "name": "ONEWEB-0198",
  "history": [
    {
      "epoch": "2026-03-28T20:18:41.656608Z",
      "apogee_km": 1207.2875850210312,
      "perigee_km": 1204.2867779009102,
      "latitude_deg": -3.5905192881618124e-06,
      "longitude_deg": 174.81992817174307,
      "height_km": 1208.2768652604811,
      "semi_major_axis_km": 7583.92418146097,
      "eccentricity": 0.00019784,
      "inclination_deg": 87.8948,
      "raan_deg": 305.7544,
      "arg_perigee_deg": 74.5055,
      "mean_anomaly_deg": 285.6293,
      "mean_motion_rev_day": 13.14503625
    },
    {
      "epoch": "2026-03-29T03:37:07.980384Z",
      "apogee_km": 1207.2888215311514,
      "perigee_km": 1204.2855875461537,
      "latitude_deg": 1.2670836259084887e-05,
      "longitude_deg": 64.84934573641699,
      "height_km": 1208.2686174304722,
      "semi_major_axis_km": 7583.924204538653,
      "eccentricity": 0.000198,
      "inclination_deg": 87.8947,
      "raan_deg": 305.6936,
      "arg_perigee_deg": 74.1907,
      "mean_anomaly_deg": 285.9441,
      "mean_motion_rev_day": 13.14503619
    },
    {
      "epoch": "2026-03-30T01:32:26.974176Z",
      "apogee_km": 1207.2741521692005,
      "perigee_km": 1204.3026185247145,
      "latitude_deg": -5.117800196569574e-05,
      "longitude_deg": 94.93770091008204,
      "height_km": 1208.2727379216328,
      "semi_major_axis_km": 7583.925385346957,
      "eccentricity": 0.00019591,
      "inclination_deg": 87.8946,
      "raan_deg": 305.5114,
      "arg_perigee_deg": 74.1336,
      "mean_anomaly_deg": 286.0009,
      "mean_motion_rev_day": 13.14503312
    },
    {
      "epoch": "2026-03-30T12:30:06.476256Z",
      "apogee_km": 1207.2713367944834,
      "perigee_km": 1204.3067800982362,
      "latitude_deg": 3.6793724777973133e-06,
      "longitude_deg": -70.01803971305057,
      "height_km": 1208.2734679691816,
      "semi_major_axis_km": 7583.926058446359,
      "eccentricity": 0.00019545,
      "inclination_deg": 87.8945,
      "raan_deg": 305.4204,
      "arg_perigee_deg": 74.0976,
      "mean_anomaly_deg": 286.0369,
      "mean_motion_rev_day": 13.14503137
    },
    {
      "epoch": "2026-03-30T14:19:43.043808Z",
      "apogee_km": 1207.2685768905058,
      "perigee_km": 1204.3085707390455,
      "latitude_deg": 4.482379028441346e-05,
      "longitude_deg": -97.5106279290003,
      "height_km": 1208.2717885805705,
      "semi_major_axis_km": 7583.925573814776,
      "eccentricity": 0.00019515,
      "inclination_deg": 87.8945,
      "raan_deg": 305.4052,
      "arg_perigee_deg": 74.0244,
      "mean_anomaly_deg": 286.1101,
      "mean_motion_rev_day": 13.14503263
    },
    {
      "epoch": "2026-03-31T21:23:04.830432Z",
      "apogee_km": 1207.2478875755542,
      "perigee_km": 1204.3265599645565,
      "latitude_deg": -6.146407681177259e-05,
      "longitude_deg": 155.11496557080457,
      "height_km": 1208.2727331420313,
      "semi_major_axis_km": 7583.924223770055,
      "eccentricity": 0.0001926,
      "inclination_deg": 87.8943,
      "raan_deg": 305.147,
      "arg_perigee_deg": 73.8983,
      "mean_anomaly_deg": 286.2358,
      "mean_motion_rev_day": 13.14503614
    },
    {
      "epoch": "2026-04-01T21:08:00.263904Z",
      "apogee_km": 1207.226941644868,
      "perigee_km": 1204.3465674028994,
      "latitude_deg": 7.567804171285442e-05,
      "longitude_deg": 157.71117328015745,
      "height_km": 1208.2691156850772,
      "semi_major_axis_km": 7583.923754523883,
      "eccentricity": 0.0001899,
      "inclination_deg": 87.8939,
      "raan_deg": 304.9495,
      "arg_perigee_deg": 73.5313,
      "mean_anomaly_deg": 286.6026,
      "mean_motion_rev_day": 13.14503736
    }
  ]
}